[Satellite]
VERSION=1.1
NAME=ASTRA 5B (EGNOS/PRN 123)
NICKNAME=ASTRA 5B (EGNOS/PRN 123)
TLE1=1 39617U 14011B   15053.10189552  .00000130  00000-0  00000+0 0  9991
TLE2=2 39617   0.0535 306.6397 0001653  11.2524 261.9753  1.00274071  3429
